*******************************************************************************
JPL/HORIZONS                      1P/Halley                2023-Feb-28 05:44:35
Rec #:90000030        Soln.date: 2022-Jun-07_13:24:35   # obs: 8548 (1835-1994)
 
IAU76/J2000 helio. ecliptic osc. elements (au, days, deg., period=Julian yrs):
 
  EPOCH=  2439857.5 ! 1968-Jan-02.0000000 (TDB)    RMSW= n.a.
   EC= .9679427911271      QR= .5747157977675837   TP= 2446470.1488983454
   OM= 59.11448293673941   W= 112.257792004868     IN= 162.1878711908339
   A= 17.92781773504393    MA= 274.1404919498392   ADIST= 35.28091967232027
   PER= 75.91006173829101  N= .012984132           ANGMOM= .018294235
   DAN= 1.7857             DDN= .82759             L= 305.8527835
   B= 16.4455591           MOID= .0752736          TP= 1986-Feb-08.6488983454
 
Comet physical (GM= km^3/s^2; RAD= km):
   GM= n.a.                RAD= 5.5
   M1=  5.5      M2=  13.6     k1=  8.     k2=  5.      PHCOF=  .030
 
Comet non-gravitational force model (AMRAT=m^2/kg;A1-A3=au/d^2;DT=days;R0=au):
   AMRAT=  0.                                      DT=  0.
   A1= 4.823267459869E-10  A2= 1.554713398218E-10  A3= 0.
 Standard model:
   ALN=  .1112620426   NK=  4.6142   NM=  2.15     NN=  5.093    R0=  2.808
 
COMET comments 
1: soln ref.= JPL#73, data arc: 1835-08-21 to 1994-01-11
2: k1=8.0, k2=5.0, phase coef.=0.03;
*******************************************************************************


*******************************************************************************
Ephemeris / WWW_USER Tue Feb 28 05:44:35 2023 Pasadena, USA      / Horizons
*******************************************************************************
Target body name: 1P/Halley                       {source: JPL#73}
Center body name: Sun (10)                        {source: DE441}
Center-site name: BODY CENTER
*******************************************************************************
Start time      : A.D. 1910-Jan-01 00:00:00.0000 TDB
Stop  time      : A.D. 1987-Jan-01 00:00:00.0000 TDB
Step-size       : 43200 minutes
*******************************************************************************
Center geodetic : 0.0, 0.0, 0.0                   {E-lon(deg),Lat(deg),Alt(km)}
Center cylindric: 0.0, 0.0, 0.0                   {E-lon(deg),Dxy(km),Dz(km)}
Center radii    : 696000.0, 696000.0, 696000.0 km {Equator_a, b, pole_c}
Small perturbers: Yes                             {source: SB441-N16}
Output units    : AU-D
Calendar mode   : Mixed Julian/Gregorian
Output type     : GEOMETRIC cartesian states
Output format   : 1 (position only)
Reference frame : Ecliptic of J2000.0
*******************************************************************************
Initial IAU76/J2000 heliocentric ecliptic osculating elements (au, days, deg.):
  EPOCH=  2439857.5 ! 1968-Jan-02.0000000 (TDB)    RMSW= n.a.                  
   EC= .9679427911271      QR= .5747157977675837   TP= 2446470.1488983454      
   OM= 59.11448293673941   W= 112.257792004868     IN= 162.1878711908339       
  Equivalent ICRF heliocentric cartesian coordinates (au, au/d):
   X=-1.333580711037850E+01  Y= 2.543805202833605E+01  Z= 2.636800024594010E+00
  VX= 1.415824036915183E-03 VY=-1.416718165237950E-03 VZ= 4.194435401575923E-05
Comet physical (GM= km^3/s^2; RAD= km):                                        
   GM= n.a.                RAD= 5.5                                            
   M1=  5.5      M2=  13.6     k1=  8.     k2=  5.      PHCOF=  .030           
Comet non-gravitational force model (AMRAT=m^2/kg;A1-A3=au/d^2;DT=days;R0=au): 
   AMRAT=  0.                                      DT=  0.                     
   A1= 4.823267459869E-10  A2= 1.554713398218E-10  A3= 0.                      
 Standard model:                                                               
   ALN=  .1112620426   NK=  4.6142   NM=  2.15     NN=  5.093    R0=  2.808    
*******************************************************************************
            JDTDB,            Calendar Date (TDB),                      X,                      Y,                      Z,
**************************************************************************************************************************
$$SOE
2436612.500000000, A.D. 1959-Feb-13 00:00:00.0000, -1.714381553273270E+01,  2.713240718066531E+01, -9.201135679410562E+00,
2436642.500000000, A.D. 1959-Mar-15 00:00:00.0000, -1.711532100665273E+01,  2.711826460377397E+01, -9.191048650599212E+00,
2436672.500000000, A.D. 1959-Apr-14 00:00:00.0000, -1.708669788451795E+01,  2.710393351394907E+01, -9.180895769039260E+00,
2436702.500000000, A.D. 1959-May-14 00:00:00.0000, -1.705794538872927E+01,  2.708941446800241E+01, -9.170676962489967E+00,
2436732.500000000, A.D. 1959-Jun-13 00:00:00.0000, -1.702906359505133E+01,  2.707470821639488E+01, -9.160392132730507E+00,
2436762.500000000, A.D. 1959-Jul-13 00:00:00.0000, -1.700005288166057E+01,  2.705981543285416E+01, -9.150041196762258E+00,
2436792.500000000, A.D. 1959-Aug-12 00:00:00.0000, -1.697091460498421E+01,  2.704473673702932E+01, -9.139623965059268E+00,
2436822.500000000, A.D. 1959-Sep-11 00:00:00.0000, -1.694165047858781E+01,  2.702947133672975E+01, -9.129140262269059E+00,
2436852.500000000, A.D. 1959-Oct-11 00:00:00.0000, -1.691226103946357E+01,  2.701401764947603E+01, -9.118590004551027E+00,
2436882.500000000, A.D. 1959-Nov-10 00:00:00.0000, -1.688274626058710E+01,  2.699837444076315E+01, -9.107973075851337E+00,
2436912.500000000, A.D. 1959-Dec-10 00:00:00.0000, -1.685310554405752E+01,  2.698254050869813E+01, -9.097289407235298E+00,
2436942.500000000, A.D. 1960-Jan-09 00:00:00.0000, -1.682333752175777E+01,  2.696651563495418E+01, -9.086538970158919E+00,
2436972.500000000, A.D. 1960-Feb-08 00:00:00.0000, -1.679344182425405E+01,  2.695030077703668E+01, -9.075721615995596E+00,
2437002.500000000, A.D. 1960-Mar-09 00:00:00.0000, -1.676341910049355E+01,  2.693389644548521E+01, -9.064837180096315E+00,
2437032.500000000, A.D. 1960-Apr-08 00:00:00.0000, -1.673327000115963E+01,  2.691730276101228E+01, -9.053885524980325E+00,
2437062.500000000, A.D. 1960-May-08 00:00:00.0000, -1.670299570819073E+01,  2.690051948203457E+01, -9.042866457030467E+00,
2437092.500000000, A.D. 1960-Jun-07 00:00:00.0000, -1.667259702284735E+01,  2.688354534859138E+01, -9.031779860747369E+00,
2437122.500000000, A.D. 1960-Jul-07 00:00:00.0000, -1.664207355026960E+01,  2.686637938233395E+01, -9.020625693272594E+00,
2437152.500000000, A.D. 1960-Aug-06 00:00:00.0000, -1.661142513456405E+01,  2.684902140532659E+01, -9.009403847278961E+00,
2437182.500000000, A.D. 1960-Sep-05 00:00:00.0000, -1.658065191663792E+01,  2.683147122936827E+01, -8.998114228463622E+00,
2437212.500000000, A.D. 1960-Oct-05 00:00:00.0000, -1.654975413928408E+01,  2.681372904335020E+01, -8.986756717649872E+00,
2437242.500000000, A.D. 1960-Nov-04 00:00:00.0000, -1.651873308394540E+01,  2.679579471294830E+01, -8.975331093940035E+00,
2437272.500000000, A.D. 1960-Dec-04 00:00:00.0000, -1.648758988402470E+01,  2.677766681330209E+01, -8.963837188539648E+00,
2437302.500000000, A.D. 1961-Jan-03 00:00:00.0000, -1.645632454667456E+01,  2.675934384453868E+01, -8.952274878356777E+00,
2437332.500000000, A.D. 1961-Feb-02 00:00:00.0000, -1.642493683385605E+01,  2.674082453374949E+01, -8.940644020493949E+00,
2437362.500000000, A.D. 1961-Mar-04 00:00:00.0000, -1.639342584285530E+01,  2.672210779223732E+01, -8.928944553265250E+00,
2437392.500000000, A.D. 1961-Apr-03 00:00:00.0000, -1.636179040430607E+01,  2.670319394831995E+01, -8.917176403154544E+00,
2437422.500000000, A.D. 1961-May-03 00:00:00.0000, -1.633003076914859E+01,  2.668408389574324E+01, -8.905339396346035E+00,
2437452.500000000, A.D. 1961-Jun-02 00:00:00.0000, -1.629814796032927E+01,  2.666477778825293E+01, -8.893433375252144E+00,
2437482.500000000, A.D. 1961-Jul-02 00:00:00.0000, -1.626614318089477E+01,  2.664527550062066E+01, -8.881458154660317E+00,
2437512.500000000, A.D. 1961-Aug-01 00:00:00.0000, -1.623401806607283E+01,  2.662557591394613E+01, -8.869413520722819E+00,
2437542.500000000, A.D. 1961-Aug-31 00:00:00.0000, -1.620177327760789E+01,  2.660567685415364E+01, -8.857299366383623E+00,
2437572.500000000, A.D. 1961-Sep-30 00:00:00.0000, -1.616940835904355E+01,  2.658557680614567E+01, -8.845115598475257E+00,
2437602.500000000, A.D. 1961-Oct-30 00:00:00.0000, -1.613692291375036E+01,  2.656527472649174E+01, -8.832862091277724E+00,
2437632.500000000, A.D. 1961-Nov-29 00:00:00.0000, -1.610431633653359E+01,  2.654476983305498E+01, -8.820538756076749E+00,
2437662.500000000, A.D. 1961-Dec-29 00:00:00.0000, -1.607158843175118E+01,  2.652406226606699E+01, -8.808145419919066E+00,
2437692.500000000, A.D. 1962-Jan-28 00:00:00.0000, -1.603874007007881E+01,  2.650315168001729E+01, -8.795681846529295E+00,
2437722.500000000, A.D. 1962-Feb-27 00:00:00.0000, -1.600577183413535E+01,  2.648203677669258E+01, -8.783147872845804E+00,
2437752.500000000, A.D. 1962-Mar-29 00:00:00.0000, -1.597268389609152E+01,  2.646071646701686E+01, -8.770543323581613E+00,
2437782.500000000, A.D. 1962-Apr-28 00:00:00.0000, -1.593947635469759E+01,  2.643918934712314E+01, -8.757868045371575E+00,
2437812.500000000, A.D. 1962-May-28 00:00:00.0000, -1.590614844744336E+01,  2.641745412519915E+01, -8.745121980693513E+00,
2437842.500000000, A.D. 1962-Jun-27 00:00:00.0000, -1.587269957703450E+01,  2.639551080539504E+01, -8.732305003695680E+00,
2437872.500000000, A.D. 1962-Jul-27 00:00:00.0000, -1.583913025563333E+01,  2.637335935477169E+01, -8.719416932213329E+00,
2437902.500000000, A.D. 1962-Aug-26 00:00:00.0000, -1.580544121453535E+01,  2.635099912105632E+01, -8.706457609636402E+00,
2437932.500000000, A.D. 1962-Sep-25 00:00:00.0000, -1.577163358530610E+01,  2.632842925146009E+01, -8.693426800967153E+00,
2437962.500000000, A.D. 1962-Oct-25 00:00:00.0000, -1.573770849325706E+01,  2.630564765353304E+01, -8.680324288874420E+00,
